{
  "norad_id": 55758,
  "name": "STARLINK-5072",
  "history": [
    {
      "epoch": "2026-03-28T17:18:30.052224Z",
      "apogee_km": 574.3250317390975,
      "perigee_km": 569.7504267323138,
      "latitude_deg": 5.030010300669379e-06,
      "longitude_deg": 110.59631977659113,
      "height_km": 574.4278312262454,
      "semi_major_axis_km": 6950.174729235705,
      "eccentricity": 0.0003291,
      "inclination_deg": 70.0008,
      "raan_deg": 196.3591,
      "arg_perigee_deg": 270.9442,
      "mean_anomaly_deg": 89.134,
      "mean_motion_rev_day": 14.98335873
    },
    {
      "epoch": "2026-03-29T23:45:03.577536Z",
      "apogee_km": 574.3024789754854,
      "perigee_km": 569.8070949276853,
      "latitude_deg": 4.8333724638288704e-05,
      "longitude_deg": 9.50861200221517,
      "height_km": 574.4410660809402,
      "semi_major_axis_km": 6950.191786951585,
      "eccentricity": 0.0003234,
      "inclination_deg": 70.0011,
      "raan_deg": 193.1613,
      "arg_perigee_deg": 271.0572,
      "mean_anomaly_deg": 89.0217,
      "mean_motion_rev_day": 14.98330357
    },
    {
      "epoch": "2026-03-30T06:09:36.077184Z",
      "apogee_km": 574.2144353142921,
      "perigee_km": 569.8948911955795,
      "latitude_deg": -1.0029151276470266e-05,
      "longitude_deg": -87.56303343497328,
      "height_km": 574.4119522312379,
      "semi_major_axis_km": 6950.1916632549355,
      "eccentricity": 0.00031075,
      "inclination_deg": 70.0014,
      "raan_deg": 192.4883,
      "arg_perigee_deg": 271.8669,
      "mean_anomaly_deg": 88.2134,
      "mean_motion_rev_day": 14.98330397
    },
    {
      "epoch": "2026-03-30T10:58:00.241536Z",
      "apogee_km": 574.2206238799927,
      "perigee_km": 569.8884304972653,
      "latitude_deg": -3.0155311025582745e-06,
      "longitude_deg": -160.36602012541664,
      "height_km": 574.4179455833205,
      "semi_major_axis_km": 6950.191527188629,
      "eccentricity": 0.00031166,
      "inclination_deg": 70.0013,
      "raan_deg": 191.9834,
      "arg_perigee_deg": 271.6993,
      "mean_anomaly_deg": 88.3809,
      "mean_motion_rev_day": 14.98330441
    },
    {
      "epoch": "2026-03-30T17:22:32.283264Z",
      "apogee_km": 574.1823212158533,
      "perigee_km": 569.9167137426166,
      "latitude_deg": -3.961924232195392e-05,
      "longitude_deg": 102.56475554424037,
      "height_km": 574.5055469792184,
      "semi_major_axis_km": 6950.186517479235,
      "eccentricity": 0.00030687,
      "inclination_deg": 70.0015,
      "raan_deg": 191.3109,
      "arg_perigee_deg": 269.2373,
      "mean_anomaly_deg": 90.8434,
      "mean_motion_rev_day": 14.98332061
    },
    {
      "epoch": "2026-03-31T12:36:08.833536Z",
      "apogee_km": 574.1881338354096,
      "perigee_km": 569.9097383768622,
      "latitude_deg": 4.2753805728376524e-05,
      "longitude_deg": 171.3527761959018,
      "height_km": 574.5495681826844,
      "semi_major_axis_km": 6950.185936106136,
      "eccentricity": 0.00030779,
      "inclination_deg": 70.0013,
      "raan_deg": 189.2908,
      "arg_perigee_deg": 268.0444,
      "mean_anomaly_deg": 92.0363,
      "mean_motion_rev_day": 14.98332249
    },
    {
      "epoch": "2026-04-01T12:38:10.208256Z",
      "apogee_km": 574.278241508523,
      "perigee_km": 569.850963087858,
      "latitude_deg": -9.189158357726932e-06,
      "longitude_deg": 167.33510109989447,
      "height_km": 574.526252504001,
      "semi_major_axis_km": 6950.20160229819,
      "eccentricity": 0.0003185,
      "inclination_deg": 70.0008,
      "raan_deg": 186.7659,
      "arg_perigee_deg": 269.1211,
      "mean_anomaly_deg": 90.9583,
      "mean_motion_rev_day": 14.98327183
    },
    {
      "epoch": "2026-04-02T12:40:10.285248Z",
      "apogee_km": 574.4021115005089,
      "perigee_km": 569.6573716693629,
      "latitude_deg": 1.0960389227259932e-05,
      "longitude_deg": 163.3229737395802,
      "height_km": 574.4376885172882,
      "semi_major_axis_km": 6950.166741584935,
      "eccentricity": 0.00034134,
      "inclination_deg": 70.0002,
      "raan_deg": 184.2411,
      "arg_perigee_deg": 270.4812,
      "mean_anomaly_deg": 89.5956,
      "mean_motion_rev_day": 14.98338456
    },
    {
      "epoch": "2026-04-03T14:18:19.537344Z",
      "apogee_km": 574.3350501540217,
      "perigee_km": 569.7673864569506,
      "latitude_deg": -4.53668573261854e-05,
      "longitude_deg": 135.0385740953661,
      "height_km": 574.4637322292756,
      "semi_major_axis_km": 6950.188218305486,
      "eccentricity": 0.0003286,
      "inclination_deg": 70.0008,
      "raan_deg": 181.5481,
      "arg_perigee_deg": 270.3833,
      "mean_anomaly_deg": 89.6949,
      "mean_motion_rev_day": 14.98331511
    },
    {
      "epoch": "2026-04-04T14:20:20.935392Z",
      "apogee_km": 574.2980610998748,
      "perigee_km": 569.823523761107,
      "latitude_deg": -1.4627407893869601e-05,
      "longitude_deg": 131.02152954706906,
      "height_km": 574.4929164349437,
      "semi_major_axis_km": 6950.19779243049,
      "eccentricity": 0.0003219,
      "inclination_deg": 70.0011,
      "raan_deg": 179.0239,
      "arg_perigee_deg": 269.8879,
      "mean_anomaly_deg": 90.1911,
      "mean_motion_rev_day": 14.98328415
    },
    {
      "epoch": "2026-04-05T14:22:22.135584Z",
      "apogee_km": 574.3305739400967,
      "perigee_km": 569.814327838908,
      "latitude_deg": 2.1727929290197853e-05,
      "longitude_deg": 127.0050128314647,
      "height_km": 574.5371244864446,
      "semi_major_axis_km": 6950.209450889502,
      "eccentricity": 0.0003249,
      "inclination_deg": 70.0009,
      "raan_deg": 176.4994,
      "arg_perigee_deg": 269.0633,
      "mean_anomaly_deg": 91.0154,
      "mean_motion_rev_day": 14.98324645
    },
    {
      "epoch": "2026-04-06T06:23:42.487008Z",
      "apogee_km": 574.3613074709092,
      "perigee_km": 569.7725048439079,
      "latitude_deg": 1.9915032015477348e-05,
      "longitude_deg": -115.67090009872383,
      "height_km": 574.5318842150779,
      "semi_major_axis_km": 6950.203906157408,
      "eccentricity": 0.00033012,
      "inclination_deg": 70.0009,
      "raan_deg": 174.8163,
      "arg_perigee_deg": 269.0718,
      "mean_anomaly_deg": 91.0063,
      "mean_motion_rev_day": 14.98326438
    },
    {
      "epoch": "2026-04-07T11:14:07.271808Z",
      "apogee_km": 574.4601955267863,
      "perigee_km": 569.6320423177331,
      "latitude_deg": -9.094316730527755e-07,
      "longitude_deg": 167.51109350425574,
      "height_km": 574.4528143777902,
      "semi_major_axis_km": 6950.183118922259,
      "eccentricity": 0.00034734,
      "inclination_deg": 70.0005,
      "raan_deg": 171.786,
      "arg_perigee_deg": 270.5043,
      "mean_anomaly_deg": 89.5718,
      "mean_motion_rev_day": 14.9833316
    },
    {
      "epoch": "2026-04-08T14:28:25.289472Z",
      "apogee_km": 574.3939736052753,
      "perigee_km": 569.754985451149,
      "latitude_deg": 3.639785728082502e-05,
      "longitude_deg": 114.95579118446342,
      "height_km": 574.4716102186017,
      "semi_major_axis_km": 6950.211479528212,
      "eccentricity": 0.00033373,
      "inclination_deg": 70.0003,
      "raan_deg": 168.9244,
      "arg_perigee_deg": 270.7573,
      "mean_anomaly_deg": 89.3204,
      "mean_motion_rev_day": 14.98323989
    },
    {
      "epoch": "2026-04-09T12:54:18.017856Z",
      "apogee_km": 574.394082100549,
      "perigee_km": 569.7277192300417,
      "latitude_deg": 6.08284213806315e-05,
      "longitude_deg": 135.20867432931976,
      "height_km": 574.4592287319123,
      "semi_major_axis_km": 6950.1979006652955,
      "eccentricity": 0.0003357,
      "inclination_deg": 70.0002,
      "raan_deg": 166.5682,
      "arg_perigee_deg": 270.7238,
      "mean_anomaly_deg": 89.3537,
      "mean_motion_rev_day": 14.9832838
    },
    {
      "epoch": "2026-04-10T04:55:38.645760Z",
      "apogee_km": 574.4329822444724,
      "perigee_km": 569.7151789629579,
      "latitude_deg": -1.150967421074868e-05,
      "longitude_deg": -107.46831973841189,
      "height_km": 574.4683249077957,
      "semi_major_axis_km": 6950.211080603714,
      "eccentricity": 0.0003394,
      "inclination_deg": 70.0001,
      "raan_deg": 164.8852,
      "arg_perigee_deg": 270.8158,
      "mean_anomaly_deg": 89.2612,
      "mean_motion_rev_day": 14.98324118
    },
    {
      "epoch": "2026-04-11T20:58:59.102688Z",
      "apogee_km": 574.3330736047064,
      "perigee_km": 569.7098282031657,
      "latitude_deg": 4.007229336637428e-06,
      "longitude_deg": 5.844016995989218,
      "height_km": 574.4891800154861,
      "semi_major_axis_km": 6950.158450903936,
      "eccentricity": 0.0003326,
      "inclination_deg": 70.0002,
      "raan_deg": 160.6778,
      "arg_perigee_deg": 269.0103,
      "mean_anomaly_deg": 91.0675,
      "mean_motion_rev_day": 14.98341137
    },
    {
      "epoch": "2026-04-13T03:25:32.137248Z",
      "apogee_km": 573.7397823665742,
      "perigee_km": 570.3084878141808,
      "latitude_deg": -4.034175458490967e-05,
      "longitude_deg": -95.24237312135111,
      "height_km": 574.2324691378411,
      "semi_major_axis_km": 6950.161135090378,
      "eccentricity": 0.00024685,
      "inclination_deg": 70.0026,
      "raan_deg": 157.4793,
      "arg_perigee_deg": 277.3244,
      "mean_anomaly_deg": 82.7634,
      "mean_motion_rev_day": 14.98340269
    },
    {
      "epoch": "2026-04-14T13:04:22.691712Z",
      "apogee_km": 574.14101361962,
      "perigee_km": 570.2060258157771,
      "latitude_deg": -4.25092283153225e-05,
      "longitude_deg": 115.13033517819233,
      "height_km": 574.9999702817207,
      "semi_major_axis_km": 6950.310519717698,
      "eccentricity": 0.00028308,
      "inclination_deg": 69.9994,
      "raan_deg": 153.9445,
      "arg_perigee_deg": 258.2922,
      "mean_anomaly_deg": 101.7919,
      "mean_motion_rev_day": 14.98291963
    }
  ]
}